NORAD_CAT_ID,OBJECT_NAME,OBJECT_TYPE,EPOCH,MEAN_MOTION,ECCENTRICITY,INCLINATION,RA_OF_ASC_NODE,ARG_OF_PERICENTER,MEAN_ANOMALY,BSTAR,MEAN_MOTION_DOT,MEAN_MOTION_DDOT,TLE_LINE0,TLE_LINE1,TLE_LINE2,SEMIMAJOR_AXIS,PERIOD,APOGEE,PERIGEE,DECAYED
49175.0,STARLINK-3087,PAYLOAD,2024-04-11 14:38:46,14.98362339,0.0002769,70.0015,232.0461,267.6875,92.3967,0.00038098,4.459e-05,0.0,0 STARLINK-3087,1 49175U 21082AX  24102.61026032  .00004459  00000-0  38098-3 0  9991,2 49175  70.0015 232.0461 0002769 267.6875  92.3967 14.98362339142050,6950.093,96.105,573.882,570.033,0.0
49175.0,STARLINK-3087,PAYLOAD,2024-04-11 17:51:05,14.98333696,0.0002592,70.0031,231.7103,288.3295,71.7582,5.9766e-05,6.2e-06,0.0,0 STARLINK-3087,1 49175U 21082AX  24102.74380788  .00000620  00000-0  59766-4 0  9998,2 49175  70.0031 231.7103 0002592 288.3295  71.7582 14.98333696142077,6950.181,96.107,573.848,570.245,0.0
49175.0,STARLINK-3087,PAYLOAD,2024-04-12 01:51:46,14.98318784,0.0002581,70.0019,230.8671,268.554,91.5324,-3.5413e-05,-5.15e-06,0.0,0 STARLINK-3087,1 49175U 21082AX  24103.07761748 -.00000515  00000-0 -35413-4 0  9992,2 49175  70.0019 230.8671 0002581 268.5540  91.5324 14.98318784142125,6950.228,96.108,573.886,570.299,0.0
49175.0,STARLINK-3087,PAYLOAD,2024-04-12 14:40:50,14.983234,0.0003296,70.0005,229.5193,268.7962,91.282,-4.3614e-05,-6.13e-06,0.0,0 STARLINK-3087,1 49175U 21082AX  24103.61169551 -.00000613  00000-0 -43614-4 0  9997,2 49175  70.0005 229.5193 0003296 268.7962  91.2820 14.98323400142206,6950.213,96.107,574.369,569.788,0.0
49175.0,STARLINK-3087,PAYLOAD,2024-04-13 13:06:43,14.98339253,0.0003089,70.0007,227.1645,269.6724,90.4081,-0.00030217,-3.697e-05,0.0,0 STARLINK-3087,1 49175U 21082AX  24104.54633313 -.00003697  00000-0 -30217-3 0  9991,2 49175  70.0007 227.1645 0003089 269.6724  90.4081 14.98339253142348,6950.164,96.106,574.176,569.882,0.0
49175.0,STARLINK-3087,PAYLOAD,2024-04-13 14:42:51,14.98340278,0.0002931,70.0006,226.9955,264.4747,95.6077,-0.00031811,-3.888e-05,0.0,0 STARLINK-3087,1 49175U 21082AX  24104.61309250 -.00003888  00000-0 -31811-3 0  9992,2 49175  70.0006 226.9955 0002931 264.4747  95.6077 14.98340278142353,6950.161,96.106,574.063,569.989,0.0
49175.0,STARLINK-3087,PAYLOAD,2024-04-13 17:55:06,14.9835778,0.0002589,70.0008,226.6592,260.8122,99.2745,-0.00057546,-6.957e-05,0.0,0 STARLINK-3087,1 49175U 21082AX  24104.74660597 -.00006957  00000-0 -57546-3 0  9993,2 49175  70.0008 226.6592 0002589 260.8122  99.2745 14.98357780142375,6950.107,96.105,573.771,570.173,0.0
49175.0,STARLINK-3087,PAYLOAD,2024-04-14 03:31:55,14.98323889,0.0003245,70.0007,225.6496,269.6871,90.3917,0.00012806,1.435e-05,0.0,0 STARLINK-3087,1 49175U 21082AX  24105.14717234  .00001435  00000-0  12806-3 0  9993,2 49175  70.0007 225.6496 0003245 269.6871  90.3917 14.98323889142437,6950.212,96.107,574.332,569.821,0.0
49175.0,STARLINK-3087,PAYLOAD,2024-04-14 13:08:43,14.98333513,0.0003292,70.0002,224.6383,269.6161,90.4621,0.00023919,2.762e-05,0.0,0 STARLINK-3087,1 49175U 21082AX  24105.54772578  .00002762  00000-0  23919-3 0  9990,2 49175  70.0002 224.6383 0003292 269.6161  90.4621 14.98333513142494,6950.182,96.107,574.335,569.759,0.0
49175.0,STARLINK-3087,PAYLOAD,2024-04-14 19:33:14,14.98346183,0.0003317,70.0002,223.9648,270.5136,89.5643,0.00036402,4.255e-05,0.0,0 STARLINK-3087,1 49175U 21082AX  24105.81475657  .00004255  00000-0  36402-3 0  9998,2 49175  70.0002 223.9648 0003317 270.5136  89.5643 14.98346183142536,6950.143,96.106,574.313,569.702,0.0
49175.0,STARLINK-3087,PAYLOAD,2024-04-14 21:09:22,14.98348298,0.0003324,70.0001,223.7963,270.7739,89.304,0.00039234,4.594e-05,0.0,0 STARLINK-3087,1 49175U 21082AX  24105.88151538  .00004594  00000-0  39234-3 0  9996,2 49175  70.0001 223.7963 0003324 270.7739  89.3040 14.98348298142541,6950.136,96.106,574.312,569.691,0.0
49175.0,STARLINK-3087,PAYLOAD,2024-04-15 03:33:56,14.98329247,0.0003294,70.0011,223.1232,269.2214,90.8567,0.00015149,1.715e-05,0.0,0 STARLINK-3087,1 49175U 21082AX  24106.14857354  .00001715  00000-0  15149-3 0  9996,2 49175  70.0011 223.1232 0003294 269.2214  90.8567 14.98329247142580,6950.195,96.107,574.35,569.771,0.0
49175.0,STARLINK-3087,PAYLOAD,2024-04-15 13:10:44,14.98352495,0.0003381,70.0015,222.1136,269.0632,91.014,0.00091079,0.00010798,0.0,0 STARLINK-3087,1 49175U 21082AX  24106.54912434  .00010798  00000-0  91079-3 0  9998,2 49175  70.0015 222.1136 0003381 269.0632  91.0140 14.98352495142643,6950.123,96.106,574.338,569.638,0.0
49175.0,STARLINK-3087,PAYLOAD,2024-04-15 21:11:24,14.98363071,0.0003384,70.0014,221.2717,269.756,90.3211,0.0022303,0.00026643,0.0,0 STARLINK-3087,1 49175U 21082AX  24106.88291998  .00026643  00000-0  22303-2 0  9999,2 49175  70.0014 221.2717 0003384 269.7560  90.3211 14.98363071142695,6950.091,96.105,574.308,569.604,0.0
49175.0,STARLINK-3087,PAYLOAD,2024-04-16 03:35:56,14.98349778,0.0003206,70.0014,220.5986,268.5207,91.5585,0.00077776,9.204e-05,0.0,0 STARLINK-3087,1 49175U 21082AX  24107.14995971  .00009204  00000-0  77776-3 0  9990,2 49175  70.0014 220.5986 0003206 268.5207  91.5585 14.98349778142733,6950.132,96.106,574.225,569.769,0.0
49175.0,STARLINK-3087,PAYLOAD,2024-04-16 13:12:44,14.98374509,0.0003281,70.0014,219.5888,270.4355,89.6428,0.0023305,0.00027857,0.0,0 STARLINK-3087,1 49175U 21082AX  24107.55051090  .00027857  00000-0  23305-2 0  9992,2 49175  70.0014 219.5888 0003281 270.4355  89.6428 14.98374509142791,6950.055,96.104,574.201,569.64,0.0
49175.0,STARLINK-3087,PAYLOAD,2024-04-16 14:48:52,14.98375936,0.0003241,70.0014,219.4202,271.4184,88.6603,0.0021569,0.00025769,0.0,0 STARLINK-3087,1 49175U 21082AX  24107.61726898  .00025769  00000-0  21569-2 0  9994,2 49175  70.0014 219.4202 0003241 271.4184  88.6603 14.98375936142808,6950.051,96.104,574.168,569.663,0.0
49175.0,STARLINK-3087,PAYLOAD,2024-04-16 19:37:15,14.98403136,0.0003263,70.0013,218.9154,270.3045,89.774,0.0029098,0.00034866,0.0,0 STARLINK-3087,1 49175U 21082AX  24107.81753914  .00034866  00000-0  29098-2 0  9998,2 49175  70.0013 218.9154 0003263 270.3045  89.7740 14.98403136142836,6949.967,96.102,574.1,569.564,0.0
49175.0,STARLINK-3087,PAYLOAD,2024-04-17 03:37:56,14.98317901,0.0003172,70.0014,218.0739,259.4759,100.6043,-0.0024361,-0.00029031,0.0,0 STARLINK-3087,1 49175U 21082AX  24108.15134764 -.00029031  00000-0 -24361-2 0  9990,2 49175  70.0014 218.0739 0003172 259.4759 100.6043 14.98317901142884,6950.23,96.108,574.3,569.891,0.0
49175.0,STARLINK-3087,PAYLOAD,2024-04-17 14:50:54,14.98303655,0.0003364,70.0014,216.896,262.7538,97.3238,0.0012843,0.00015254,0.0,0 STARLINK-3087,1 49175U 21082AX  24108.61868075  .00015254  00000-0  12843-2 0  9992,2 49175  70.0014 216.8960 0003364 262.7538  97.3238 14.98303655142958,6950.274,96.109,574.477,569.801,0.0
49175.0,STARLINK-3087,PAYLOAD,2024-04-17 19:39:18,14.983144,0.0003323,70.0015,216.3913,261.1789,98.8994,0.0029704,0.00035516,0.0,0 STARLINK-3087,1 49175U 21082AX  24108.81896519  .00035516  00000-0  29704-2 0  9995,2 49175  70.0015 216.3913 0003323 261.1789  98.8994 14.98314400142986,6950.241,96.108,574.416,569.797,0.0
49175.0,STARLINK-3087,PAYLOAD,2024-04-17 21:15:26,14.98317839,0.0003318,70.0015,216.2227,260.6288,99.4495,0.0030389,0.00036344,0.0,0 STARLINK-3087,1 49175U 21082AX  24108.88572609  .00036344  00000-0  30389-2 0  9994,2 49175  70.0015 216.2227 0003318 260.6288  99.4495 14.98317839142998,6950.23,96.108,574.402,569.789,0.0
49175.0,STARLINK-3087,PAYLOAD,2024-04-18 03:39:59,14.98311652,0.000332,70.0016,215.5494,260.8868,99.1915,0.0014696,0.00017478,0.0,0 STARLINK-3087,1 49175U 21082AX  24109.15277167  .00017478  00000-0  14696-2 0  9996,2 49175  70.0016 215.5494 0003320 260.8868  99.1915 14.98311652143033,6950.25,96.108,574.422,569.807,0.0
49175.0,STARLINK-3087,PAYLOAD,2024-04-18 13:16:48,14.98332023,0.0003372,70.0016,214.5395,262.435,97.6426,0.0020514,0.00024471,0.0,0 STARLINK-3087,1 49175U 21082AX  24109.55333355  .00024471  00000-0  20514-2 0  9999,2 49175  70.0016 214.5395 0003372 262.4350  97.6426 14.98332023143094,6950.187,96.107,574.395,569.708,0.0
49175.0,STARLINK-3087,PAYLOAD,2024-04-18 19:41:20,14.98351932,0.0003397,70.0017,213.8663,263.5762,96.501,0.0026559,0.00031759,0.0,0 STARLINK-3087,1 49175U 21082AX  24109.82037101  .00031759  00000-0  26559-2 0  9991,2 49175  70.0017 213.8663 0003397 263.5762  96.5010 14.98351932143133,6950.125,96.106,574.351,569.629,0.0
49175.0,STARLINK-3087,PAYLOAD,2024-04-18 21:17:28,14.98356068,0.000338,70.0017,213.698,263.1343,96.9432,0.0026562,0.00031766,0.0,0 STARLINK-3087,1 49175U 21082AX  24109.88712991  .00031766  00000-0  26562-2 0  9996,2 49175  70.0017 213.6980 0003380 263.1343  96.9432 14.98356068143144,6950.112,96.105,574.326,569.628,0.0
49175.0,STARLINK-3087,PAYLOAD,2024-04-19 13:18:48,14.98369145,0.0003248,70.002,212.0145,266.9873,93.0914,0.002867,0.00034319,0.0,0 STARLINK-3087,1 49175U 21082AX  24110.55472573  .00034319  00000-0  28670-2 0  9990,2 49175  70.0020 212.0145 0003248 266.9873  93.0914 14.98369145143240,6950.072,96.104,574.194,569.679,0.0
49175.0,STARLINK-3087,PAYLOAD,2024-04-19 14:54:56,14.98371298,0.0003299,70.002,211.8466,269.1583,90.9199,0.0029459,0.00035273,0.0,0 STARLINK-3087,1 49175U 21082AX  24110.62148418  .00035273  00000-0  29459-2 0  9992,2 49175  70.0020 211.8466 0003299 269.1583  90.9199 14.98371298143256,6950.065,96.104,574.223,569.637,0.0
49175.0,STARLINK-3087,PAYLOAD,2024-04-19 16:31:04,14.98378359,0.00033,70.0021,211.6783,269.4572,90.6209,0.0032541,0.00039001,0.0,0 STARLINK-3087,1 49175U 21082AX  24110.68824200  .00039001  00000-0  32541-2 0  9997,2 49175  70.0021 211.6783 0003300 269.4572  90.6209 14.98378359143266,6950.043,96.104,574.202,569.615,0.0
49175.0,STARLINK-3087,PAYLOAD,2024-04-20 05:20:07,14.98378663,0.0002951,70.0022,210.3317,267.1143,92.9679,0.0020263,0.00024199,0.0,0 STARLINK-3087,1 49175U 21082AX  24111.22231253  .00024199  00000-0  20263-2 0  9998,2 49175  70.0022 210.3317 0002951 267.1143  92.9679 14.98378663143349,6950.042,96.104,573.958,569.856,0.0
